OPTICUBE 04             
1 41851U 16067D   26068.51005515  .00003771  00000+0  24102-3 0  9992
2 41851  98.0811 275.5525 0017089  94.6311 265.6869 15.09188144510131
STARLINK-34984          
1 65290U 25184T   26068.70347398  .00001474  00000+0  10638-3 0  9991
2 65290  97.6033 122.6862 0000864 113.8583 246.2734 15.05647339 31304
